{
 "generated_at": "2026-06-17T09:51:32Z",
 "sources": [
  {
   "name": "CelesTrak",
   "url": "https://celestrak.org/NORAD/elements/",
   "license": "frei verfügbar; Attribution. Ursprünglich USSPACECOM/Space-Track."
  },
  {
   "name": "GCAT (J. McDowell, planet4589.org)",
   "url": "https://planet4589.org/space/gcat/",
   "license": "CC-BY 4.0"
  }
 ],
 "satellites": [
  {
   "norad": 60541,
   "name": "UMBRA-09",
   "intl": "2024-149CB",
   "group": "sar",
   "gcat": {
    "class": "B",
    "category": "IMG-R",
    "owner": "UMBRA",
    "state": "US"
   },
   "omm": {
    "OBJECT_NAME": "UMBRA-09",
    "OBJECT_ID": "2024-149CB",
    "EPOCH": "2026-06-16T05:03:09.809280",
    "MEAN_MOTION": 15.18018194,
    "ECCENTRICITY": 0.00006091,
    "INCLINATION": 97.6977,
    "RA_OF_ASC_NODE": 254.3989,
    "ARG_OF_PERICENTER": 274.6306,
    "MEAN_ANOMALY": 85.4857,
    "EPHEMERIS_TYPE": 0,
    "CLASSIFICATION_TYPE": "U",
    "NORAD_CAT_ID": 60541,
    "ELEMENT_SET_NO": 999,
    "REV_AT_EPOCH": 10057,
    "BSTAR": 0.00061858023,
    "MEAN_MOTION_DOT": 0.00012525,
    "MEAN_MOTION_DDOT": 0
   }
  },
  {
   "norad": 60547,
   "name": "UMBRA-10",
   "intl": "2024-149CH",
   "group": "sar",
   "gcat": {
    "class": "B",
    "category": "IMG-R",
    "owner": "UMBRA",
    "state": "US"
   },
   "omm": {
    "OBJECT_NAME": "UMBRA-10",
    "OBJECT_ID": "2024-149CH",
    "EPOCH": "2026-06-16T17:41:53.172672",
    "MEAN_MOTION": 15.18030439,
    "ECCENTRICITY": 0.0000493,
    "INCLINATION": 97.6983,
    "RA_OF_ASC_NODE": 254.9626,
    "ARG_OF_PERICENTER": 71.7039,
    "MEAN_ANOMALY": 288.4247,
    "EPHEMERIS_TYPE": 0,
    "CLASSIFICATION_TYPE": "U",
    "NORAD_CAT_ID": 60547,
    "ELEMENT_SET_NO": 999,
    "REV_AT_EPOCH": 10066,
    "BSTAR": 0.00064287,
    "MEAN_MOTION_DOT": 0.00013025,
    "MEAN_MOTION_DDOT": 0
   }
  },
  {
   "norad": 66748,
   "name": "UMBRA-11",
   "intl": "2025-276CL",
   "group": "sar",
   "gcat": {
    "class": "B",
    "category": "IMG-R",
    "owner": "UMBRA",
    "state": "US"
   },
   "omm": {
    "OBJECT_NAME": "UMBRA-11",
    "OBJECT_ID": "2025-276CL",
    "EPOCH": "2026-06-16T22:17:45.936960",
    "MEAN_MOTION": 15.26712742,
    "ECCENTRICITY": 0.0000984,
    "INCLINATION": 97.42,
    "RA_OF_ASC_NODE": 242.5606,
    "ARG_OF_PERICENTER": 0.1032,
    "MEAN_ANOMALY": 0.0207,
    "EPHEMERIS_TYPE": 0,
    "CLASSIFICATION_TYPE": "U",
    "NORAD_CAT_ID": 66748,
    "ELEMENT_SET_NO": 999,
    "REV_AT_EPOCH": 3045,
    "BSTAR": 0.00067184,
    "MEAN_MOTION_DOT": 0.00017601,
    "MEAN_MOTION_DDOT": 0
   }
  },
  {
   "norad": 67371,
   "name": "UMBRA-12",
   "intl": "2026-004J",
   "group": "sar",
   "gcat": {
    "class": "B",
    "category": "IMG-R",
    "owner": "UMBRA",
    "state": "US"
   },
   "omm": {
    "OBJECT_NAME": "UMBRA-12",
    "OBJECT_ID": "2026-004J",
    "EPOCH": "2026-06-16T23:20:49.062048",
    "MEAN_MOTION": 14.89317096,
    "ECCENTRICITY": 0.0007571,
    "INCLINATION": 97.8009,
    "RA_OF_ASC_NODE": 166.7456,
    "ARG_OF_PERICENTER": 124.5356,
    "MEAN_ANOMALY": 235.6577,
    "EPHEMERIS_TYPE": 0,
    "CLASSIFICATION_TYPE": "U",
    "NORAD_CAT_ID": 67371,
    "ELEMENT_SET_NO": 999,
    "REV_AT_EPOCH": 2327,
    "BSTAR": 0.00033816,
    "MEAN_MOTION_DOT": 0.00003153,
    "MEAN_MOTION_DDOT": 0
   }
  },
  {
   "norad": 39160,
   "name": "VNREDSAT 1",
   "intl": "2013-021B",
   "group": "resource",
   "gcat": {
    "class": "C",
    "category": "IMG",
    "owner": "VAST",
    "state": "VN"
   },
   "omm": {
    "OBJECT_NAME": "VNREDSAT 1",
    "OBJECT_ID": "2013-021B",
    "EPOCH": "2026-06-17T03:46:32.694240",
    "MEAN_MOTION": 14.64856807,
    "ECCENTRICITY": 0.0001715,
    "INCLINATION": 97.908,
    "RA_OF_ASC_NODE": 221.5748,
    "ARG_OF_PERICENTER": 89.3921,
    "MEAN_ANOMALY": 270.7479,
    "EPHEMERIS_TYPE": 0,
    "CLASSIFICATION_TYPE": "U",
    "NORAD_CAT_ID": 39160,
    "ELEMENT_SET_NO": 999,
    "REV_AT_EPOCH": 70028,
    "BSTAR": 0.000084073,
    "MEAN_MOTION_DOT": 0.00000404,
    "MEAN_MOTION_DDOT": 0
   }
  },
  {
   "norad": 32060,
   "name": "WORLDVIEW-1 (WV-1)",
   "intl": "2007-041A",
   "group": "resource",
   "gcat": {
    "class": "B",
    "category": "IMG",
    "owner": "DGLO",
    "state": "US"
   },
   "omm": {
    "OBJECT_NAME": "WORLDVIEW-1 (WV-1)",
    "OBJECT_ID": "2007-041A",
    "EPOCH": "2026-06-17T03:51:30.934080",
    "MEAN_MOTION": 15.2426629,
    "ECCENTRICITY": 0.0002265,
    "INCLINATION": 97.3882,
    "RA_OF_ASC_NODE": 287.9044,
    "ARG_OF_PERICENTER": 21.6029,
    "MEAN_ANOMALY": 338.5303,
    "EPHEMERIS_TYPE": 0,
    "CLASSIFICATION_TYPE": "U",
    "NORAD_CAT_ID": 32060,
    "ELEMENT_SET_NO": 999,
    "REV_AT_EPOCH": 4287,
    "BSTAR": 0.00019765,
    "MEAN_MOTION_DOT": 0.00004754,
    "MEAN_MOTION_DDOT": 0
   }
  },
  {
   "norad": 35946,
   "name": "WORLDVIEW-2 (WV-2)",
   "intl": "2009-055A",
   "group": "resource",
   "gcat": {
    "class": "B",
    "category": "IMG",
    "owner": "DGLO",
    "state": "US"
   },
   "omm": {
    "OBJECT_NAME": "WORLDVIEW-2 (WV-2)",
    "OBJECT_ID": "2009-055A",
    "EPOCH": "2026-06-17T03:55:52.172256",
    "MEAN_MOTION": 14.37899407,
    "ECCENTRICITY": 0.0003707,
    "INCLINATION": 98.4737,
    "RA_OF_ASC_NODE": 241.6137,
    "ARG_OF_PERICENTER": 208.0657,
    "MEAN_ANOMALY": 152.0331,
    "EPHEMERIS_TYPE": 0,
    "CLASSIFICATION_TYPE": "U",
    "NORAD_CAT_ID": 35946,
    "ELEMENT_SET_NO": 999,
    "REV_AT_EPOCH": 87564,
    "BSTAR": 0.00004291,
    "MEAN_MOTION_DOT": 8.6e-7,
    "MEAN_MOTION_DDOT": 0
   }
  },
  {
   "norad": 40115,
   "name": "WORLDVIEW-3 (WV-3)",
   "intl": "2014-048A",
   "group": "resource",
   "gcat": {
    "class": "B",
    "category": "IMG",
    "owner": "DGLO",
    "state": "US"
   },
   "omm": {
    "OBJECT_NAME": "WORLDVIEW-3 (WV-3)",
    "OBJECT_ID": "2014-048A",
    "EPOCH": "2026-06-17T04:01:00.278112",
    "MEAN_MOTION": 14.85021902,
    "ECCENTRICITY": 0.0000989,
    "INCLINATION": 97.8567,
    "RA_OF_ASC_NODE": 243.0005,
    "ARG_OF_PERICENTER": 26.03,
    "MEAN_ANOMALY": 334.0965,
    "EPHEMERIS_TYPE": 0,
    "CLASSIFICATION_TYPE": "U",
    "NORAD_CAT_ID": 40115,
    "ELEMENT_SET_NO": 999,
    "REV_AT_EPOCH": 64190,
    "BSTAR": 0.000084323,
    "MEAN_MOTION_DOT": 0.00000666,
    "MEAN_MOTION_DDOT": 0
   }
  },
  {
   "norad": 36834,
   "name": "YAOGAN-10",
   "intl": "2010-038A",
   "group": "resource",
   "gcat": {
    "class": null,
    "category": null,
    "owner": null,
    "state": null
   },
   "omm": {
    "OBJECT_NAME": "YAOGAN-10",
    "OBJECT_ID": "2010-038A",
    "EPOCH": "2026-06-17T05:30:21.583872",
    "MEAN_MOTION": 14.85347994,
    "ECCENTRICITY": 0.0001651,
    "INCLINATION": 97.8969,
    "RA_OF_ASC_NODE": 191.6331,
    "ARG_OF_PERICENTER": 86.4157,
    "MEAN_ANOMALY": 44.0787,
    "EPHEMERIS_TYPE": 0,
    "CLASSIFICATION_TYPE": "U",
    "NORAD_CAT_ID": 36834,
    "ELEMENT_SET_NO": 999,
    "REV_AT_EPOCH": 85721,
    "BSTAR": 0.00014198,
    "MEAN_MOTION_DOT": 0.00001167,
    "MEAN_MOTION_DDOT": 0
   }
  },
  {
   "norad": 40143,
   "name": "YAOGAN-21",
   "intl": "2014-053A",
   "group": "resource",
   "gcat": {
    "class": "D",
    "category": "IMG",
    "owner": "ZZB",
    "state": "CN"
   },
   "omm": {
    "OBJECT_NAME": "YAOGAN-21",
    "OBJECT_ID": "2014-053A",
    "EPOCH": "2026-06-17T03:54:09.470304",
    "MEAN_MOTION": 15.26371775,
    "ECCENTRICITY": 0.0009968,
    "INCLINATION": 97.1468,
    "RA_OF_ASC_NODE": 208.3989,
    "ARG_OF_PERICENTER": 93.6249,
    "MEAN_ANOMALY": 266.613,
    "EPHEMERIS_TYPE": 0,
    "CLASSIFICATION_TYPE": "U",
    "NORAD_CAT_ID": 40143,
    "ELEMENT_SET_NO": 999,
    "REV_AT_EPOCH": 65495,
    "BSTAR": 0.00016171,
    "MEAN_MOTION_DOT": 0.0000414,
    "MEAN_MOTION_DDOT": 0
   }
  }
 ]
}
